{"type":"FeatureCollection","name":"SGIS_행정동경계_2025_남동구_구월","provenance":{"source":"통계청 SGIS OpenAPI (sgisapi.mods.go.kr)","api":"/OpenAPI3/boundary/hadmarea.geojson","year":2025,"adm_cd":"23050","low_search":1,"kept":["인천광역시 남동구 구월1동","인천광역시 남동구 구월3동"],"crs":"EPSG:5179","note":"응답 geometry 좌표 그대로. 인증값·token·응답 메타 없음. scripts/fetch_sgis_boundary.py"},"features":[{"type":"Feature","properties":{"adm_cd":"23050510","adm_nm":"인천광역시 남동구 구월1동"},"geometry":{"type":"Polygon","coordinates":[[[930876.1048999992,1939015.004100001],[930858.3496999992,1939014.309699999],[930836.2103000013,1938792.5026999991],[930819.8987000008,1938623.7251999988],[930792.3324999998,1938297.4189000004],[930788.9633000004,1938229.5771000003],[930775.9296999992,1938129.1580999992],[930775.8683000004,1938128.7000999984],[930775.8029,1938128.2433000007],[930775.7354999998,1938127.7871],[930775.6641,1938127.3306999998],[930775.5907000004,1938126.8749000009],[930775.5143,1938126.4207000001],[930775.4351000008,1938125.9662999995],[930775.3517,1938125.5119000012],[930775.2662999996,1938125.0582999995],[930775.1779000004,1938124.6061000007],[930775.0865000004,1938124.1537],[930774.9920999997,1938123.7024999997],[930774.8949000002,1938123.2511],[930774.7945000001,1938122.8004999992],[930774.6911000013,1938122.3503],[930774.5857000006,1938121.902100001],[930774.4765000002,1938121.4536999997],[930774.3640999992,1938121.0057],[930774.2499000003,1938120.5594999986],[930774.1325000009,1938120.1132999992],[930546.4978999989,1937870.3423000001],[930445.3740999995,1937807.8818999985],[930431.9367000007,1937801.6420999998],[930417.5413000005,1937812.7328999997],[930415.6476999995,1937814.1919000004],[930358.5108999999,1937874.2397000014],[930277.9549000013,1937930.806299999],[930275.702700001,1937930.0986999997],[930265.8549,1937927.0039],[930180.7487000008,1937891.973099999],[930157.1863000005,1937881.5115000003],[930031.8688999997,1937719.0778999995],[929887.0348999994,1937553.6493999986],[929794.7422999996,1937977.3610999999],[929828.6715000006,1938501.2700999994],[929841.9208999993,1938610.7826000003],[929962.8297000006,1939610.1487000012],[930920.0130999992,1939514.0774000015],[930876.1048999992,1939015.004100001]]]}},{"type":"Feature","properties":{"adm_cd":"23050530","adm_nm":"인천광역시 남동구 구월3동"},"geometry":{"type":"Polygon","coordinates":[[[929991.5612000009,1940014.5946],[929962.8297000006,1939610.1487000012],[929841.9208999993,1938610.7826000003],[929828.6715000006,1938501.2700999994],[929794.7422999996,1937977.3610999999],[929887.0348999994,1937553.6493999986],[929811.907899999,1937533.2263999996],[929670.0322999998,1937818.5965000005],[929663.2085000006,1937838.3957000007],[929658.3987000003,1937852.6873000003],[929665.3479000004,1937880.2201],[929679.2117999992,1938025.0831999993],[929674.2283000003,1938044.5059999996],[929671.4403000006,1938051.5283999997],[929457.0581000003,1938068.4368999996],[929443.4681000004,1938100.0739999986],[929445.9959999998,1938121.0094000013],[929493.9331999989,1938522.3086],[929493.7939000006,1938522.3203000003],[929402.8746000004,1938529.9377999995],[929392.5825999998,1938530.9636000008],[929390.3754000004,1938531.1835999996],[929377.9184000001,1938532.8290000004],[929365.5233999998,1938534.8537999997],[929353.2004000009,1938537.2682000005],[929340.9494000011,1938540.0722000008],[929328.8003999995,1938543.2654000008],[929316.7633999994,1938546.827800001],[929304.8384000007,1938550.7796000005],[928974.3939000005,1938665.8769999999],[928922.8927999998,1938683.8154000014],[928914.9809999996,1938686.7561999997],[928907.2111000011,1938690.036200001],[928899.5825999994,1938693.6353999982],[928892.1059999985,1938697.5536999998],[928884.8008000003,1938701.780799999],[928877.6872000003,1938706.3169999989],[928874.9628000009,1938708.2185999989],[928870.7753000002,1938711.1420000007],[928776.6624000004,1938780.1665000007],[928639.6232000005,1938911.1164000002],[928636.7157999993,1938914.4453999996],[928707.5861999997,1938965.3588000005],[928610.2515000012,1939097.775599999],[928588.441599999,1939306.383199999],[928591.897300001,1939344.2416999992],[928597.8170999999,1939436.479499999],[928660.2455000004,1939431.7943000004],[928736.2448999996,1939426.0902999989],[928795.1215999995,1939780.6776],[928808.1269999994,1939911.3155000012],[928829.1069,1939911.5384999989],[928840.0205,1939909.2145000014],[928874.4559000009,1939901.8666999994],[928907.8680000008,1939893.0329999994],[928910.0440000006,1939892.4414000013],[928965.3725999998,1939877.3928],[928979.2737999989,1939873.6115000008],[928982.684600001,1939872.6835999996],[928999.2021999997,1939867.992799999],[929011.3417999995,1939864.5447999998],[929126.6107000002,1939822.6589000009],[929184.2424999999,1939798.0286000008],[929208.5573000006,1939787.6371],[929211.7586000009,1939785.9766999998],[929221.8764,1939780.728900001],[929242.0148999997,1939772.3452999992],[929254.6756,1939767.6098000007],[929278.3705999991,1939758.7474999998],[929311.3216999999,1939757.7874999987],[929403.0204999996,1939805.2986999983],[929693.716500001,1940010.6396999988],[929981.3128999994,1940025.5453000003],[929991.5612000009,1940014.5946]]]}}]}
